QIANFAN-105             
1 66047U 25233Q   25358.97520527 -.02001980  00000+0 -18174+1 0  9990
2 66047  88.9949  60.7961 0014559 354.4430   5.6578 13.87537819  9695
QIANFAN-106             
1 66048U 25233R   25358.71706923 -.01956180  00000+0 -26485+1 0  9993
2 66048  88.9973  60.9044 0009008   8.4030 351.7277 13.63383273  9623
QIANFAN-107             
1 66049U 25233S   25358.64817491 -.02136821  00000+0 -28499+1 0  9999
2 66049  88.9941  60.8912 0016936  18.9255 341.2530 13.64640550  9615
QIANFAN-108             
1 66050U 25233T   25358.93313201 -.01919294  00000+0 -26023+1 0  9996
2 66050  88.9943  60.8628 0015662  11.2283 348.9222 13.63873308  9659
